[Satellite]
VERSION=1.1
NAME=NOAA 13 [-]
NICKNAME=NOAA 13 [-]
TLE1=1 22739U 93050A   20157.87044300  .00000001  00000-0  22274-4 0  9993
TLE2=2 22739  98.4561 166.3473 0008562 314.1769  45.8700 14.12755564382344
STATUS=2
